NORAD_CAT_ID,OBJECT_NAME,OBJECT_TYPE,EPOCH,MEAN_MOTION,ECCENTRICITY,INCLINATION,RA_OF_ASC_NODE,ARG_OF_PERICENTER,MEAN_ANOMALY,BSTAR,MEAN_MOTION_DOT,MEAN_MOTION_DDOT,TLE_LINE0,TLE_LINE1,TLE_LINE2,SEMIMAJOR_AXIS,PERIOD,APOGEE,PERIGEE,DECAYED
51856.0,STARLINK-3568,PAYLOAD,2023-06-04 11:31:18,15.08838226,8.93e-05,53.2168,229.6493,78.6852,281.4241,5.3926e-05,5.71e-06,0.0,0 STARLINK-3568,1 51856U 22022E   23155.48007261  .00000571  00000-0  53926-4 0  9999,2 51856  53.2168 229.6493 0000893  78.6852 281.4241 15.08838226 70690,6917.886,95.438,540.369,539.133,0.0
51856.0,STARLINK-3568,PAYLOAD,2023-06-05 09:46:41,15.08842378,9.18e-05,53.2169,225.4858,82.3454,277.7643,2.5165e-05,1.13e-06,0.0,0 STARLINK-3568,1 51856U 22022E   23156.40743014  .00000113  00000-0  25165-4 0  9991,2 51856  53.2169 225.4858 0000918  82.3454 277.7643 15.08842378 70831,6917.873,95.437,540.373,539.103,0.0
51856.0,STARLINK-3568,PAYLOAD,2023-06-05 11:22:05,15.08842603,8.83e-05,53.2168,225.1885,92.1324,267.9769,3.9365e-05,3.39e-06,0.0,0 STARLINK-3568,1 51856U 22022E   23156.47366917  .00000339  00000-0  39365-4 0  9998,2 51856  53.2168 225.1885 0000883  92.1324 267.9769 15.08842603 70845,6917.872,95.437,540.348,539.127,0.0
51856.0,STARLINK-3568,PAYLOAD,2023-06-05 14:32:51,15.08843717,8.91e-05,53.2168,224.5932,95.2041,264.9053,4.8132e-05,4.78e-06,0.0,0 STARLINK-3568,1 51856U 22022E   23156.60614771  .00000478  00000-0  48132-4 0  9993,2 51856  53.2168 224.5932 0000891  95.2041 264.9053 15.08843717 70862,6917.869,95.437,540.35,539.118,0.0
51856.0,STARLINK-3568,PAYLOAD,2023-06-06 08:02:06,15.08833517,9.3e-05,53.2167,221.322,94.6592,265.4506,-1.0573e-05,-4.56e-06,0.0,0 STARLINK-3568,1 51856U 22022E   23157.33479678 -.00000456  00000-0 -10573-4 0  9995,2 51856  53.2167 221.3220 0000930  94.6592 265.4506 15.08833517 70972,6917.9,95.438,540.409,539.122,0.0
51856.0,STARLINK-3568,PAYLOAD,2023-06-06 11:12:52,15.08836436,9.33e-05,53.2166,220.7272,95.9638,264.146,2.2376e-06,-2.52e-06,0.0,0 STARLINK-3568,1 51856U 22022E   23157.46727482 -.00000252  00000-0  22376-5 0  9996,2 51856  53.2166 220.7272 0000933  95.9638 264.1460 15.08836436 70999,6917.891,95.438,540.402,539.111,0.0
51856.0,STARLINK-3568,PAYLOAD,2023-06-07 07:52:53,15.08838081,9.17e-05,53.2166,216.8635,82.1711,277.9386,8.7253e-06,-1.49e-06,0.0,0 STARLINK-3568,1 51856U 22022E   23158.32839583 -.00000149  00000-0  87253-5 0  9998,2 51856  53.2166 216.8635 0000917  82.1711 277.9386 15.08838081 71123,6917.886,95.438,540.386,539.117,0.0
51856.0,STARLINK-3568,PAYLOAD,2023-06-07 20:35:58,15.08838958,9.31e-05,53.2165,214.484,78.9003,281.2094,2.6912e-05,1.41e-06,0.0,0 STARLINK-3568,1 51856U 22022E   23158.85831519  .00000141  00000-0  26912-4 0  9992,2 51856  53.2165 214.4840 0000931  78.9003 281.2094 15.08838958 71203,6917.884,95.438,540.393,539.105,0.0
51856.0,STARLINK-3568,PAYLOAD,2023-06-08 09:19:03,15.0883334,9.43e-05,53.2163,212.1059,81.9336,278.1764,6.1177e-05,6.86e-06,0.0,0 STARLINK-3568,1 51856U 22022E   23159.38823948  .00000686  00000-0  61177-4 0  9994,2 51856  53.2163 212.1059 0000943  81.9336 278.1764 15.08833340 71281,6917.901,95.438,540.418,539.113,0.0
51856.0,STARLINK-3568,PAYLOAD,2023-06-08 12:29:49,15.08835297,9.83e-05,53.2162,211.5112,88.5816,271.5288,0.00010314,1.354e-05,0.0,0 STARLINK-3568,1 51856U 22022E   23159.52071721  .00001354  00000-0  10314-3 0  9993,2 51856  53.2162 211.5112 0000983  88.5816 271.5288 15.08835297 71307,6917.895,95.438,540.44,539.08,0.0
51856.0,STARLINK-3568,PAYLOAD,2023-06-09 12:20:36,15.08840408,0.0001007,53.2159,207.0495,88.1628,271.9479,6.9166e-05,8.13e-06,0.0,0 STARLINK-3568,1 51856U 22022E   23160.51431602  .00000813  00000-0  69166-4 0  9991,2 51856  53.2159 207.0495 0001007  88.1628 271.9479 15.08840408 71454,6917.879,95.438,540.441,539.048,0.0
51856.0,STARLINK-3568,PAYLOAD,2023-06-09 20:17:32,15.08838658,0.0001044,53.2158,205.5637,86.2155,273.8956,2.5256e-05,1.14e-06,0.0,0 STARLINK-3568,1 51856U 22022E   23160.84551872  .00000114  00000-0  25256-4 0  9995,2 51856  53.2158 205.5637 0001044  86.2155 273.8956 15.08838658 71500,6917.884,95.438,540.472,539.027,0.0
51856.0,STARLINK-3568,PAYLOAD,2023-06-10 02:39:05,15.08828928,8.99e-05,53.2161,204.3734,88.5233,271.5862,0.000108,1.431e-05,0.0,0 STARLINK-3568,1 51856U 22022E   23161.11048186  .00001431  00000-0  10800-3 0  9996,2 51856  53.2161 204.3734 0000899  88.5233 271.5862 15.08828928 71542,6917.914,95.438,540.401,539.157,0.0
51856.0,STARLINK-3568,PAYLOAD,2023-06-10 09:00:38,15.08833757,0.0001077,53.2159,203.1851,69.8877,290.2231,-1.3219e-05,-4.98e-06,0.0,0 STARLINK-3568,1 51856U 22022E   23161.37544449 -.00000498  00000-0 -13219-4 0  9999,2 51856  53.2159 203.1851 0001077  69.8877 290.2231 15.08833757 71589,6917.899,95.438,540.51,539.019,0.0
51856.0,STARLINK-3568,PAYLOAD,2023-06-10 10:36:02,15.08818177,9.77e-05,53.2161,202.8869,83.1713,276.9391,-0.00012139,-2.218e-05,0.0,0 STARLINK-3568,1 51856U 22022E   23161.44169789 -.00002218  00000-0 -12139-3 0  9998,2 51856  53.2161 202.8869 0000977  83.1713 276.9391 15.08818177 71591,6917.947,95.439,540.488,539.136,0.0
51856.0,STARLINK-3568,PAYLOAD,2023-06-10 20:08:21,15.08823312,9.89e-05,53.2162,201.1027,82.3825,277.728,-9.4076e-05,-1.784e-05,0.0,0 STARLINK-3568,1 51856U 22022E   23161.83913778 -.00001784  00000-0 -94076-4 0  9994,2 51856  53.2162 201.1027 0000989  82.3825 277.7280 15.08823312 71658,6917.931,95.439,540.481,539.112,0.0
51856.0,STARLINK-3568,PAYLOAD,2023-06-11 02:29:53,15.08827125,0.0001,53.2161,199.9137,76.1421,283.9682,-5.3819e-05,-1.144e-05,0.0,0 STARLINK-3568,1 51856U 22022E   23162.10409662 -.00001144  00000-0 -53819-4 0  9997,2 51856  53.2161 199.9137 0001000  76.1421 283.9682 15.08827125 71696,6917.92,95.438,540.477,539.093,0.0
51856.0,STARLINK-3568,PAYLOAD,2023-06-11 12:02:12,15.08832172,9.78e-05,53.2161,198.1289,79.19,280.9202,-2.4134e-05,-6.72e-06,0.0,0 STARLINK-3568,1 51856U 22022E   23162.50153515 -.00000672  00000-0 -24134-4 0  9997,2 51856  53.2161 198.1289 0000978  79.1900 280.9202 15.08832172 71753,6917.904,95.438,540.446,539.093,0.0
51856.0,STARLINK-3568,PAYLOAD,2023-06-11 19:59:08,15.08836692,9.59e-05,53.2163,196.6423,77.9435,282.1664,2.3543e-05,8.7e-07,0.0,0 STARLINK-3568,1 51856U 22022E   23162.83273226  .00000087  00000-0  23543-4 0  9996,2 51856  53.2163 196.6423 0000959  77.9435 282.1664 15.08836692 71809,6917.891,95.438,540.419,539.092,0.0
51856.0,STARLINK-3568,PAYLOAD,2023-06-12 02:20:40,15.08837304,8.99e-05,53.2165,195.4528,74.987,285.1222,9.0127e-05,1.147e-05,0.0,0 STARLINK-3568,1 51856U 22022E   23163.09769063  .00001147  00000-0  90127-4 0  9994,2 51856  53.2165 195.4528 0000899  74.9870 285.1222 15.08837304 71845,6917.889,95.438,540.376,539.132,0.0
51856.0,STARLINK-3568,PAYLOAD,2023-06-12 08:42:12,15.08839966,9.2e-05,53.2164,194.2635,74.2547,285.8546,0.00010711,1.417e-05,0.0,0 STARLINK-3568,1 51856U 22022E   23163.36264932  .00001417  00000-0  10711-3 0  9999,2 51856  53.2164 194.2635 0000920  74.2547 285.8546 15.08839966 71885,6917.88,95.438,540.382,539.109,0.0
51856.0,STARLINK-3568,PAYLOAD,2023-06-13 02:11:27,15.08843931,9.93e-05,53.2164,190.9923,69.9117,290.1982,0.00018753,2.698e-05,0.0,0 STARLINK-3568,1 51856U 22022E   23164.09128625  .00002698  00000-0  18753-3 0  9994,2 51856  53.2164 190.9923 0000993  69.9117 290.1982 15.08843931 71994,6917.868,95.437,540.42,539.046,0.0
51856.0,STARLINK-3568,PAYLOAD,2023-06-13 18:05:18,15.08846727,0.0001005,53.2161,188.0189,65.0601,295.0495,0.00012683,1.732e-05,0.0,0 STARLINK-3568,1 51856U 22022E   23164.75368399  .00001732  00000-0  12683-3 0  9995,2 51856  53.2161 188.0189 0001005  65.0601 295.0495 15.08846727 72094,6917.86,95.437,540.42,539.03,0.0
51856.0,STARLINK-3568,PAYLOAD,2023-06-14 02:02:14,15.08844234,0.0001087,53.2163,186.5317,72.2362,287.8749,7.1219e-06,-1.74e-06,0.0,0 STARLINK-3568,1 51856U 22022E   23165.08488811 -.00000174  00000-0  71219-5 0  9996,2 51856  53.2163 186.5317 0001087  72.2362 287.8749 15.08844234 72144,6917.867,95.437,540.484,538.98,0.0
51856.0,STARLINK-3568,PAYLOAD,2023-06-14 11:34:32,15.08844684,0.000111,53.2163,184.748,71.8817,288.2296,1.2933e-05,-8.2e-07,0.0,0 STARLINK-3568,1 51856U 22022E   23165.48232623 -.00000082  00000-0  12933-4 0  9993,2 51856  53.2163 184.7480 0001110  71.8817 288.2296 15.08844684 72200,6917.866,95.437,540.499,538.963,0.0
51856.0,STARLINK-3568,PAYLOAD,2023-06-14 17:56:05,15.08841895,0.0001105,53.2161,183.5581,71.0281,289.0831,-3.071e-05,-7.77e-06,0.0,0 STARLINK-3568,1 51856U 22022E   23165.74728841 -.00000777  00000-0 -30710-4 0  9999,2 51856  53.2161 183.5581 0001105  71.0281 289.0831 15.08841895 72247,6917.875,95.437,540.504,538.975,0.0
51856.0,STARLINK-3568,PAYLOAD,2023-06-15 06:39:10,15.08841271,0.0001092,53.2165,181.179,81.8074,278.3042,-7.3863e-05,-1.463e-05,0.0,0 STARLINK-3568,1 51856U 22022E   23166.27720850 -.00001463  00000-0 -73863-4 0  9999,2 51856  53.2165 181.1790 0001092  81.8074 278.3042 15.08841271 72323,6917.877,95.437,540.497,538.986,0.0
51856.0,STARLINK-3568,PAYLOAD,2023-06-15 17:46:52,15.08840228,0.0001097,53.2164,179.0976,79.4426,280.669,-3.5605e-05,-8.54e-06,0.0,0 STARLINK-3568,1 51856U 22022E   23166.74088760 -.00000854  00000-0 -35605-4 0  9993,2 51856  53.2164 179.0976 0001097  79.4426 280.6690 15.08840228 72396,6917.88,95.438,540.504,538.986,0.0
51856.0,STARLINK-3568,PAYLOAD,2023-06-16 08:05:20,15.0884071,0.0001062,53.2162,176.4211,74.8177,285.2932,3.7095e-05,3.03e-06,0.0,0 STARLINK-3568,1 51856U 22022E   23167.33704490  .00000303  00000-0  37095-4 0  9996,2 51856  53.2162 176.4211 0001062  74.8177 285.2932 15.08840710 72487,6917.878,95.438,540.478,539.009,0.0
51856.0,STARLINK-3568,PAYLOAD,2023-06-16 17:37:39,15.08840452,0.0001079,53.2165,174.637,73.5754,286.5357,4.7464e-05,4.68e-06,0.0,0 STARLINK-3568,1 51856U 22022E   23167.73448454  .00000468  00000-0  47464-4 0  9998,2 51856  53.2165 174.6370 0001079  73.5754 286.5357 15.08840452 72546,6917.879,95.438,540.49,538.998,0.0
